ACS3                    
1 59588U 24077B   24272.37652816  .00051174  00000+0  57959-1 0  9993
2 59588  97.4339 316.6365 0048269 195.2205 164.7497 13.69491788 21518
